[{"OBJECT_NAME":"SL-14 R/B","OBJECT_ID":"1986-006B","EPOCH":"2026-03-21T21:40:59.965248","MEAN_MOTION":14.86832514,"ECCENTRICITY":0.00753412,"INCLINATION":82.5239,"RA_OF_ASC_NODE":248.2386,"ARG_OF_PERICENTER":231.5421,"MEAN_ANOMALY":127.902,"EPHEMERIS_TYPE":0,"CLASSIFICATION_TYPE":"U","NORAD_CAT_ID":16496,"ELEMENT_SET_NO":999,"REV_AT_EPOCH":15102,"BSTAR":7.987954e-5,"MEAN_MOTION_DOT":7.76e-6,"MEAN_MOTION_DDOT":0},{"OBJECT_NAME":"COSMOS 1743","OBJECT_ID":"1986-034A","EPOCH":"2026-03-21T21:38:08.373984","MEAN_MOTION":15.59481898,"ECCENTRICITY":0.00028434,"INCLINATION":82.5301,"RA_OF_ASC_NODE":61.0033,"ARG_OF_PERICENTER":196.0719,"MEAN_ANOMALY":164.0448,"EPHEMERIS_TYPE":0,"CLASSIFICATION_TYPE":"U","NORAD_CAT_ID":16719,"ELEMENT_SET_NO":999,"REV_AT_EPOCH":18215,"BSTAR":0.00064078837,"MEAN_MOTION_DOT":0.00051,"MEAN_MOTION_DDOT":0},{"OBJECT_NAME":"SL-14 R/B","OBJECT_ID":"1986-046B","EPOCH":"2026-03-21T22:20:55.226400","MEAN_MOTION":14.85601671,"ECCENTRICITY":0.00229301,"INCLINATION":82.4792,"RA_OF_ASC_NODE":68.6114,"ARG_OF_PERICENTER":183.6436,"MEAN_ANOMALY":176.4617,"EPHEMERIS_TYPE":0,"CLASSIFICATION_TYPE":"U","NORAD_CAT_ID":16792,"ELEMENT_SET_NO":999,"REV_AT_EPOCH":12822,"BSTAR":4.8567784e-5,"MEAN_MOTION_DOT":4.46e-6,"MEAN_MOTION_DDOT":0},{"OBJECT_NAME":"SL-14 R/B","OBJECT_ID":"1986-055B","EPOCH":"2026-03-21T14:24:15.961536","MEAN_MOTION":14.85652829,"ECCENTRICITY":0.00174487,"INCLINATION":82.518,"RA_OF_ASC_NODE":115.4773,"ARG_OF_PERICENTER":294.8134,"MEAN_ANOMALY":183.2921,"EPHEMERIS_TYPE":0,"CLASSIFICATION_TYPE":"U","NORAD_CAT_ID":16882,"ELEMENT_SET_NO":999,"REV_AT_EPOCH":12113,"BSTAR":4.702525e-5,"MEAN_MOTION_DOT":4.32e-6,"MEAN_MOTION_DDOT":0},{"OBJECT_NAME":"AJISAI (EGS)","OBJECT_ID":"1986-061A","EPOCH":"2026-03-21T21:54:18.948384","MEAN_MOTION":12.44515678,"ECCENTRICITY":0.0011308,"INCLINATION":50.0096,"RA_OF_ASC_NODE":55.7602,"ARG_OF_PERICENTER":318.5192,"MEAN_ANOMALY":68.5545,"EPHEMERIS_TYPE":0,"CLASSIFICATION_TYPE":"U","NORAD_CAT_ID":16908,"ELEMENT_SET_NO":999,"REV_AT_EPOCH":46952,"BSTAR":-9.0515231e-5,"MEAN_MOTION_DOT":-1.1e-6,"MEAN_MOTION_DDOT":0},{"OBJECT_NAME":"SL-14 R/B","OBJECT_ID":"1987-024B","EPOCH":"2026-03-21T13:20:51.309024","MEAN_MOTION":14.86143006,"ECCENTRICITY":0.00172019,"INCLINATION":82.5247,"RA_OF_ASC_NODE":81.6069,"ARG_OF_PERICENTER":217.5613,"MEAN_ANOMALY":142.4403,"EPHEMERIS_TYPE":0,"CLASSIFICATION_TYPE":"U","NORAD_CAT_ID":17567,"ELEMENT_SET_NO":999,"REV_AT_EPOCH":8989,"BSTAR":5.0201492e-5,"MEAN_MOTION_DOT":4.65e-6,"MEAN_MOTION_DDOT":0},{"OBJECT_NAME":"COSMOS 1833","OBJECT_ID":"1987-027A","EPOCH":"2026-03-21T21:28:07.544928","MEAN_MOTION":14.13050681,"ECCENTRICITY":0.00236348,"INCLINATION":70.919,"RA_OF_ASC_NODE":300.3673,"ARG_OF_PERICENTER":196.8637,"MEAN_ANOMALY":163.1702,"EPHEMERIS_TYPE":0,"CLASSIFICATION_TYPE":"U","NORAD_CAT_ID":17589,"ELEMENT_SET_NO":999,"REV_AT_EPOCH":1204,"BSTAR":-0.00011217804,"MEAN_MOTION_DOT":-2.58e-6,"MEAN_MOTION_DDOT":0},{"OBJECT_NAME":"SL-16 R/B","OBJECT_ID":"1987-027B","EPOCH":"2026-03-21T21:40:53.099040","MEAN_MOTION":14.17166199,"ECCENTRICITY":0.00029856,"INCLINATION":70.9992,"RA_OF_ASC_NODE":250.755,"ARG_OF_PERICENTER":114.083,"MEAN_ANOMALY":246.0606,"EPHEMERIS_TYPE":0,"CLASSIFICATION_TYPE":"U","NORAD_CAT_ID":17590,"ELEMENT_SET_NO":999,"REV_AT_EPOCH":1707,"BSTAR":-7.0349733e-5,"MEAN_MOTION_DOT":-1.9e-6,"MEAN_MOTION_DDOT":0},{"OBJECT_NAME":"SL-14 R/B","OBJECT_ID":"1987-038B","EPOCH":"2026-03-21T19:50:25.171008","MEAN_MOTION":14.85379592,"ECCENTRICITY":0.00205335,"INCLINATION":82.4983,"RA_OF_ASC_NODE":285.3717,"ARG_OF_PERICENTER":122.1927,"MEAN_ANOMALY":238.1284,"EPHEMERIS_TYPE":0,"CLASSIFICATION_TYPE":"U","NORAD_CAT_ID":17912,"ELEMENT_SET_NO":999,"REV_AT_EPOCH":8103,"BSTAR":4.779734e-5,"MEAN_MOTION_DOT":4.37e-6,"MEAN_MOTION_DDOT":0},{"OBJECT_NAME":"COSMOS 1844","OBJECT_ID":"1987-041A","EPOCH":"2026-03-21T22:00:06.179616","MEAN_MOTION":14.14552187,"ECCENTRICITY":0.00306322,"INCLINATION":70.9011,"RA_OF_ASC_NODE":8.386,"ARG_OF_PERICENTER":0.0802,"MEAN_ANOMALY":0.0319,"EPHEMERIS_TYPE":0,"CLASSIFICATION_TYPE":"U","NORAD_CAT_ID":17973,"ELEMENT_SET_NO":999,"REV_AT_EPOCH":531,"BSTAR":0.0001180134,"MEAN_MOTION_DOT":1.79e-6,"MEAN_MOTION_DDOT":0},{"OBJECT_NAME":"SL-14 R/B","OBJECT_ID":"1987-055B","EPOCH":"2026-03-21T16:00:04.007520","MEAN_MOTION":14.85641568,"ECCENTRICITY":0.0020069,"INCLINATION":82.5021,"RA_OF_ASC_NODE":337.7459,"ARG_OF_PERICENTER":338.2177,"MEAN_ANOMALY":21.8183,"EPHEMERIS_TYPE":0,"CLASSIFICATION_TYPE":"U","NORAD_CAT_ID":18153,"ELEMENT_SET_NO":999,"REV_AT_EPOCH":7171,"BSTAR":5.050156e-5,"MEAN_MOTION_DOT":4.63e-6,"MEAN_MOTION_DDOT":0},{"OBJECT_NAME":"COSMOS 1867","OBJECT_ID":"1987-060A","EPOCH":"2026-03-21T21:02:19.881600","MEAN_MOTION":14.31504824,"ECCENTRICITY":0.00146737,"INCLINATION":65.0092,"RA_OF_ASC_NODE":272.5747,"ARG_OF_PERICENTER":279.3853,"MEAN_ANOMALY":80.5572,"EPHEMERIS_TYPE":0,"CLASSIFICATION_TYPE":"U","NORAD_CAT_ID":18187,"ELEMENT_SET_NO":999,"REV_AT_EPOCH":2168,"BSTAR":2.8493311e-5,"MEAN_MOTION_DOT":-2.4e-7,"MEAN_MOTION_DDOT":0},{"OBJECT_NAME":"SL-14 R/B","OBJECT_ID":"1988-001B","EPOCH":"2026-03-21T19:08:32.758368","MEAN_MOTION":14.85541184,"ECCENTRICITY":0.00177173,"INCLINATION":82.5162,"RA_OF_ASC_NODE":183.9756,"ARG_OF_PERICENTER":193.7724,"MEAN_ANOMALY":166.3011,"EPHEMERIS_TYPE":0,"CLASSIFICATION_TYPE":"U","NORAD_CAT_ID":18749,"ELEMENT_SET_NO":999,"REV_AT_EPOCH":4382,"BSTAR":5.6141567e-5,"MEAN_MOTION_DOT":5.1e-6,"MEAN_MOTION_DDOT":0},{"OBJECT_NAME":"COSMOS 1933","OBJECT_ID":"1988-020A","EPOCH":"2026-03-21T22:02:57.490080","MEAN_MOTION":15.18092105,"ECCENTRICITY":0.00048976,"INCLINATION":82.5112,"RA_OF_ASC_NODE":238.8088,"ARG_OF_PERICENTER":143.1347,"MEAN_ANOMALY":217.0224,"EPHEMERIS_TYPE":0,"CLASSIFICATION_TYPE":"U","NORAD_CAT_ID":18958,"ELEMENT_SET_NO":999,"REV_AT_EPOCH":5208,"BSTAR":0.0002828446,"MEAN_MOTION_DOT":5.796e-5,"MEAN_MOTION_DDOT":0},{"OBJECT_NAME":"SL-3 R/B","OBJECT_ID":"1988-032B","EPOCH":"2026-03-21T21:52:39.021600","MEAN_MOTION":15.20038087,"ECCENTRICITY":0.00255558,"INCLINATION":97.5211,"RA_OF_ASC_NODE":64.1215,"ARG_OF_PERICENTER":187.2819,"MEAN_ANOMALY":172.8048,"EPHEMERIS_TYPE":0,"CLASSIFICATION_TYPE":"U","NORAD_CAT_ID":19046,"ELEMENT_SET_NO":999,"REV_AT_EPOCH":5396,"BSTAR":0.00029876214,"MEAN_MOTION_DOT":6.427e-5,"MEAN_MOTION_DDOT":0},{"OBJECT_NAME":"SL-16 R/B","OBJECT_ID":"1988-039B","EPOCH":"2026-03-21T21:19:25.213728","MEAN_MOTION":14.19617756,"ECCENTRICITY":0.00233577,"INCLINATION":71.0154,"RA_OF_ASC_NODE":42.7513,"ARG_OF_PERICENTER":316.722,"MEAN_ANOMALY":43.207,"EPHEMERIS_TYPE":0,"CLASSIFICATION_TYPE":"U","NORAD_CAT_ID":19120,"ELEMENT_SET_NO":999,"REV_AT_EPOCH":96011,"BSTAR":-3.5805856e-5,"MEAN_MOTION_DOT":-1.24e-6,"MEAN_MOTION_DDOT":0},{"OBJECT_NAME":"COSMOS 1953","OBJECT_ID":"1988-050A","EPOCH":"2026-03-21T16:05:16.836864","MEAN_MOTION":15.28708737,"ECCENTRICITY":0.00126544,"INCLINATION":82.5085,"RA_OF_ASC_NODE":146.1972,"ARG_OF_PERICENTER":85.1804,"MEAN_ANOMALY":275.0881,"EPHEMERIS_TYPE":0,"CLASSIFICATION_TYPE":"U","NORAD_CAT_ID":19210,"ELEMENT_SET_NO":999,"REV_AT_EPOCH":3961,"BSTAR":0.00032646426,"MEAN_MOTION_DOT":9.165e-5,"MEAN_MOTION_DDOT":0}]
