SL-14 R/B               
1 16496U 86006B   26080.90347182  .00000776  00000+0  79880-4 0  9991
2 16496  82.5239 248.2386 0075341 231.5421 127.9020 14.86832514151020
COSMOS 1743             
1 16719U 86034A   26080.90148581  .00051000  00000+0  64079-3 0  9991
2 16719  82.5301  61.0033 0002843 196.0719 164.0448 15.59481898182150
SL-14 R/B               
1 16792U 86046B   26080.93119475  .00000446  00000+0  48568-4 0  9992
2 16792  82.4792  68.6114 0022930 183.6436 176.4617 14.85601671128228
SL-14 R/B               
1 16882U 86055B   26080.60018474  .00000432  00000+0  47025-4 0  9995
2 16882  82.5180 115.4773 0017448 294.8134 183.2921 14.85652829121138
AJISAI (EGS)            
1 16908U 86061A   26080.91271931 -.00000110  00000+0 -90515-4 0  9991
2 16908  50.0096  55.7602 0011308 318.5192  68.5545 12.44515678469525
SL-14 R/B               
1 17567U 87024B   26080.55614941  .00000465  00000+0  50201-4 0  9994
2 17567  82.5247  81.6069 0017201 217.5613 142.4403 14.86143006 89897
COSMOS 1833             
1 17589U 87027A   26080.89453177 -.00000258  00000+0 -11218-3 0  9996
2 17589  70.9190 300.3673 0023634 196.8637 163.1702 14.13050681 12044
SL-16 R/B               
1 17590U 87027B   26080.90339235 -.00000190  00000+0 -70350-4 0  9996
2 17590  70.9992 250.7550 0002985 114.0830 246.0606 14.17166199 17079
SL-14 R/B               
1 17912U 87038B   26080.82668022  .00000437  00000+0  47797-4 0  9997
2 17912  82.4983 285.3717 0020533 122.1927 238.1284 14.85379592 81039
COSMOS 1844             
1 17973U 87041A   26080.91673819  .00000179  00000+0  11801-3 0  9997
2 17973  70.9011   8.3860 0030632   0.0802   0.0319 14.14552187  5316
SL-14 R/B               
1 18153U 87055B   26080.66671305  .00000463  00000+0  50502-4 0  9991
2 18153  82.5021 337.7459 0020069 338.2177  21.8183 14.85641568 71711
COSMOS 1867             
1 18187U 87060A   26080.87661900 -.00000024  00000+0  28493-4 0  9995
2 18187  65.0092 272.5747 0014673 279.3853  80.5572 14.31504824 21687
SL-14 R/B               
1 18749U 88001B   26080.79760137  .00000510  00000+0  56142-4 0  9999
2 18749  82.5162 183.9756 0017717 193.7724 166.3011 14.85541184 43826
COSMOS 1933             
1 18958U 88020A   26080.91872095  .00005796  00000+0  28284-3 0  9999
2 18958  82.5112 238.8088 0004897 143.1347 217.0224 15.18092105 52085
SL-3 R/B                
1 19046U 88032B   26080.91156275  .00006427  00000+0  29876-3 0  9996
2 19046  97.5211  64.1215 0025555 187.2819 172.8048 15.20038087 53961
SL-16 R/B               
1 19120U 88039B   26080.88848627 -.00000124  00000+0 -35806-4 0  9992
2 19120  71.0154  42.7513 0023357 316.7220  43.2070 14.19617756960116
COSMOS 1953             
1 19210U 88050A   26080.67033376  .00009165  00000+0  32646-3 0  9999
2 19210  82.5085 146.1972 0012654  85.1804 275.0881 15.28708737 39615
